[{"OBJECT_NAME":"FLOCK 4G-1","OBJECT_ID":"2025-009BK","EPOCH":"2026-03-09T18:13:41.778912","MEAN_MOTION":15.27421081,"ECCENTRICITY":0.00031801,"INCLINATION":97.4059,"RA_OF_ASC_NODE":151.3158,"ARG_OF_PERICENTER":323.1401,"MEAN_ANOMALY":36.9619,"EPHEMERIS_TYPE":0,"CLASSIFICATION_TYPE":"U","NORAD_CAT_ID":62666,"ELEMENT_SET_NO":999,"REV_AT_EPOCH":6372,"BSTAR":0.00050653644,"MEAN_MOTION_DOT":0.00013534,"MEAN_MOTION_DDOT":0},{"OBJECT_NAME":"STARLINK-36497","OBJECT_ID":"2026-002U","EPOCH":"2026-03-09T23:35:45.600288","MEAN_MOTION":15.27603135,"ECCENTRICITY":0.00012994,"INCLINATION":42.9996,"RA_OF_ASC_NODE":323.6163,"ARG_OF_PERICENTER":250.9128,"MEAN_ANOMALY":109.1583,"EPHEMERIS_TYPE":0,"CLASSIFICATION_TYPE":"U","NORAD_CAT_ID":67323,"ELEMENT_SET_NO":999,"REV_AT_EPOCH":1118,"BSTAR":0.0013495818,"MEAN_MOTION_DOT":0.00037089,"MEAN_MOTION_DDOT":0}]
